FENGYUN 3D              
1 43010U 17072A   26173.78534169 -.00000216  00000+0 -80087-4 0  9994
2 43010  99.0131 148.3088 0002444  53.5510 306.5890 14.19739137445782
NOAA 20 (JPSS-1)        
1 43013U 17073A   26173.64024289  .00000037  00000+0  38289-4 0  9996
2 43013  98.7771 113.0544 0000451 125.7011 234.4207 14.19512605445242
GOES 17                 
1 43226U 18022A   26173.65557049 -.00000180  00000+0  00000+0 0  9998
2 43226   0.9514  85.6088 0000495  16.4454 315.2567  1.00273217 30471
SENTINEL-3B             
1 43437U 18039A   26173.80010335  .00000065  00000+0  45091-4 0  9994
2 43437  98.6245 241.2519 0000728  98.9933 261.1330 14.26736123424921
FENGYUN 2H              
1 43491U 18050A   26173.83159563 -.00000127  00000+0  00000+0 0  9993
2 43491   3.0469  79.0159 0001730 133.1415  77.5871  1.00269443 29493
METOP-C                 
1 43689U 18087A   26173.76942388  .00000052  00000+0  43522-4 0  9996
2 43689  98.6642 233.2710 0001930 122.6032 237.5332 14.21513372395623
GEO-KOMPSAT-2A          
1 43823U 18100A   26173.84134227 -.00000340  00000+0  00000+0 0  9996
2 43823   0.0486 143.7590 0002300 305.7160 252.6871  1.00271381 27683
METEOR-M2 2             
1 44387U 19038A   26173.86436222  .00000106  00000+0  65883-4 0  9999
2 44387  98.9151 161.2336 0001827  40.4109 319.7205 14.24367497362105
ARKTIKA-M 1             
1 47719U 21016A   26168.49069990 -.00000210  00000+0  00000+0 0  9999
2 47719  63.2922  57.5948 7288528 269.9420  14.6012  2.00622504 38796
FENGYUN 3E              
1 49008U 21062A   26173.83905045  .00000072  00000+0  54856-4 0  9995
2 49008  98.7498 177.1841 0002797  76.9725 283.1764 14.19904850257385
GOES 18                 
1 51850U 22021A   26173.78879692  .00000100  00000+0  00000+0 0  9990
2 51850   0.0055 150.0151 0000444 338.6630 289.2404  1.00271254  6642
NOAA 21 (JPSS-2)        
1 54234U 22150A   26173.74342927  .00000015  00000+0  27903-4 0  9995
2 54234  98.7059 112.4394 0001957 142.4288 217.7025 14.19566263187332
METEOSAT-12 (MTG-I1)    
1 54743U 22170C   26173.81583545 -.00000005  00000+0  00000+0 0  9997
2 54743   0.7449  23.9476 0003474  70.8871 109.4832  1.00274356 13031
TIANMU-1 03             
1 55973U 23039A   26173.80569546  .00011876  00000+0  23360-3 0  9997
2 55973  97.5241 347.9952 0004051  85.5724 274.5988 15.47422455181708
TIANMU-1 04             
1 55974U 23039B   26173.79299868  .00012577  00000+0  24214-3 0  9991
2 55974  97.5175 347.1363 0004639  80.1646 280.0128 15.48024264181715
TIANMU-1 05             
1 55975U 23039C   26173.78673271  .00012130  00000+0  23917-3 0  9999
2 55975  97.5220 347.5887 0004094 101.3702 258.8008 15.47345784181684
TIANMU-1 06             
1 55976U 23039D   26173.79672692  .00012531  00000+0  24208-3 0  9996
2 55976  97.5228 348.2402 0004263  96.1493 264.0243 15.47927155181712
FENGYUN 3G              
1 56232U 23055A   26173.83392521  .00019077  00000+0  30784-3 0  9993
2 56232  49.9933 316.9212 0007109 319.7505  40.2935 15.52850352180882
METEOR-M2 3             
1 57166U 23091A   26173.85997920 -.00000025  00000+0  77449-5 0  9991
2 57166  98.6080 228.7223 0004649 141.2829 218.8684 14.24047163155329
TIANMU-1 07             
1 57399U 23101A   26173.85611631  .00004833  00000+0  16969-3 0  9991
2 57399  97.2591 224.3943 0004302 109.7564 250.4141 15.29862101162513
TIANMU-1 08             
1 57400U 23101B   26173.82274235  .00004807  00000+0  16874-3 0  9992
2 57400  97.2582 224.1303 0005718 102.2722 257.9160 15.29865884162503
TIANMU-1 09             
1 57401U 23101C   26173.80604072  .00004868  00000+0  17068-3 0  9990
2 57401  97.2538 223.5280 0004820 114.0978 246.0768 15.29898836162505
TIANMU-1 10             
1 57402U 23101D   26173.83919483  .00005008  00000+0  17563-3 0  9996
2 57402  97.2618 224.6168 0006383 111.4278 248.7644 15.29871188162505
FENGYUN 3F              
1 57490U 23111A   26173.82283557  .00000017  00000+0  28449-4 0  9990
2 57490  98.6835 243.7266 0001563  89.2005 270.9351 14.19939918149662
ARKTIKA-M 2             
1 58584U 23198A   26168.75920439  .00000145  00000+0  00000+0 0  9993
2 58584  63.2243 154.2920 6902344 267.4286  18.7609  2.00612717 18330
TIANMU-1 11             
1 58645U 23205A   26173.82007287  .00004246  00000+0  16266-3 0  9992
2 58645  97.3449 195.2884 0008268 357.5431   2.5766 15.27043539138383
TIANMU-1 12             
1 58646U 23205B   26173.85609742  .00004433  00000+0  16994-3 0  9996
2 58646  97.3438 195.0785 0006050 342.3574  17.7454 15.27010175138378
TIANMU-1 13             
1 58647U 23205C   26173.82328769  .00004379  00000+0  16865-3 0  9997
2 58647  97.3466 195.3197 0005324 317.6986  42.3842 15.26862597138361
TIANMU-1 14             
1 58648U 23205D   26173.87386337  .00004361  00000+0  16773-3 0  9997
2 58648  97.3402 194.5467 0006248 322.4719  37.6083 15.26907661138374
TIANMU-1 19             
1 58660U 23208A   26173.84026328  .00006192  00000+0  20522-3 0  9993
2 58660  97.4504 290.1693 0003503 301.1404  58.9494 15.31644935138192
