OBJECT_NAME,OBJECT_ID,EPOCH,MEAN_MOTION,ECCENTRICITY,INCLINATION,RA_OF_ASC_NODE,ARG_OF_PERICENTER,MEAN_ANOMALY,EPHEMERIS_TYPE,CLASSIFICATION_TYPE,NORAD_CAT_ID,ELEMENT_SET_NO,REV_AT_EPOCH,BSTAR,MEAN_MOTION_DOT,MEAN_MOTION_DDOT
FENGYUN 3D,2017-072A,2026-06-22T18:50:53.522016,14.19739137,.00024442,99.0131,148.3088,53.5510,306.5890,0,U,43010,999,44578,-.80086508E-4,-.216E-5,0
NOAA 20 (JPSS-1),2017-073A,2026-06-22T15:21:56.985696,14.19512605,.00004511,98.7771,113.0544,125.7011,234.4207,0,U,43013,999,44524,.38289387E-4,.37E-6,0
GOES 17,2018-022A,2026-06-22T15:44:01.290336,1.00273217,.0000495,0.9514,85.6088,16.4454,315.2567,0,U,43226,999,3047,0,-.18E-5,0
SENTINEL-3B,2018-039A,2026-06-22T19:12:08.929440,14.26736123,.00007285,98.6245,241.2519,98.9933,261.1330,0,U,43437,999,42492,.45090599E-4,.65E-6,0
FENGYUN 2H,2018-050A,2026-06-22T19:57:29.862432,1.00269443,.00017302,3.0469,79.0159,133.1415,77.5871,0,U,43491,999,2949,0,-.127E-5,0
METOP-C,2018-087A,2026-06-22T18:27:58.223232,14.21513372,.00019303,98.6642,233.2710,122.6032,237.5332,0,U,43689,999,39562,.43522228E-4,.52E-6,0
GEO-KOMPSAT-2A,2018-100A,2026-06-22T20:11:31.972128,1.00271381,.00023,0.0486,143.7590,305.7160,252.6871,0,U,43823,999,2768,0,-.34E-5,0
METEOR-M2 2,2019-038A,2026-06-22T20:44:40.895808,14.24367497,.00018275,98.9151,161.2336,40.4109,319.7205,0,U,44387,999,36210,.65882685E-4,.106E-5,0
ARKTIKA-M 1,2021-016A,2026-06-17T11:46:36.471360,2.00622504,.72885287,63.2922,57.5948,269.9420,14.6012,0,U,47719,999,3879,0,-.21E-5,0
FENGYUN 3E,2021-062A,2026-06-22T20:08:13.958880,14.19904850,.00027971,98.7498,177.1841,76.9725,283.1764,0,U,49008,999,25738,.54856097E-4,.72E-6,0
GOES 18,2022-021A,2026-06-22T18:55:52.053888,1.00271254,.00004441,0.0055,150.0151,338.6630,289.2404,0,U,51850,999,664,0,.1E-5,0
NOAA 21 (JPSS-2),2022-150A,2026-06-22T17:50:32.288928,14.19566263,.00019575,98.7059,112.4394,142.4288,217.7025,0,U,54234,999,18733,.27903091E-4,.15E-6,0
METEOSAT-12 (MTG-I1),2022-170C,2026-06-22T19:34:48.182880,1.00274356,.00034744,0.7449,23.9476,70.8871,109.4832,0,U,54743,999,1303,0,-.5E-7,0
TIANMU-1 03,2023-039A,2026-06-22T19:20:12.087744,15.47422455,.00040511,97.5241,347.9952,85.5724,274.5988,0,U,55973,999,18170,.23359854E-3,.11876E-3,0
TIANMU-1 04,2023-039B,2026-06-22T19:01:55.085952,15.48024264,.00046393,97.5175,347.1363,80.1646,280.0128,0,U,55974,999,18171,.24214023E-3,.12577E-3,0
TIANMU-1 05,2023-039C,2026-06-22T18:52:53.706144,15.47345784,.00040946,97.5220,347.5887,101.3702,258.8008,0,U,55975,999,18168,.23917424E-3,.1213E-3,0
TIANMU-1 06,2023-039D,2026-06-22T19:07:17.205888,15.47927155,.00042631,97.5228,348.2402,96.1493,264.0243,0,U,55976,999,18171,.24208354E-3,.12531E-3,0
FENGYUN 3G,2023-055A,2026-06-22T20:00:51.138144,15.52850352,.00071097,49.9933,316.9212,319.7505,40.2935,0,U,56232,999,18088,.30784156E-3,.19077E-3,0
METEOR-M2 3,2023-091A,2026-06-22T20:38:22.202880,14.24047163,.00046496,98.6080,228.7223,141.2829,218.8684,0,U,57166,999,15532,.7744861E-5,-.25E-6,0
TIANMU-1 07,2023-101A,2026-06-22T20:32:48.449184,15.29862101,.00043029,97.2591,224.3943,109.7564,250.4141,0,U,57399,999,16251,.16968513E-3,.4833E-4,0
TIANMU-1 08,2023-101B,2026-06-22T19:44:44.939040,15.29865884,.00057188,97.2582,224.1303,102.2722,257.9160,0,U,57400,999,16250,.16873989E-3,.4807E-4,0
TIANMU-1 09,2023-101C,2026-06-22T19:20:41.918208,15.29898836,.00048202,97.2538,223.5280,114.0978,246.0768,0,U,57401,999,16250,.17068327E-3,.4868E-4,0
TIANMU-1 10,2023-101D,2026-06-22T20:08:26.433312,15.29871188,.0006383,97.2618,224.6168,111.4278,248.7644,0,U,57402,999,16250,.17563405E-3,.5008E-4,0
FENGYUN 3F,2023-111A,2026-06-22T19:44:52.993248,14.19939918,.00015635,98.6835,243.7266,89.2005,270.9351,0,U,57490,999,14966,.28448763E-4,.17E-6,0
ARKTIKA-M 2,2023-198A,2026-06-17T18:13:15.259296,2.00612717,.69023443,63.2243,154.2920,267.4286,18.7609,0,U,58584,999,1833,0,.145E-5,0
TIANMU-1 11,2023-205A,2026-06-22T19:40:54.295968,15.27043539,.00082682,97.3449,195.2884,357.5431,2.5766,0,U,58645,999,13838,.16265825E-3,.4246E-4,0
TIANMU-1 12,2023-205B,2026-06-22T20:32:46.817088,15.27010175,.00060507,97.3438,195.0785,342.3574,17.7454,0,U,58646,999,13837,.16993641E-3,.4433E-4,0
TIANMU-1 13,2023-205C,2026-06-22T19:45:32.056416,15.26862597,.00053248,97.3466,195.3197,317.6986,42.3842,0,U,58647,999,13836,.16864651E-3,.4379E-4,0
TIANMU-1 14,2023-205D,2026-06-22T20:58:21.795168,15.26907661,.00062487,97.3402,194.5467,322.4719,37.6083,0,U,58648,999,13837,.16772951E-3,.4361E-4,0
TIANMU-1 19,2023-208A,2026-06-22T20:09:58.747392,15.31644935,.00035039,97.4504,290.1693,301.1404,58.9494,0,U,58660,999,13819,.20521579E-3,.6192E-4,0
